ATLAS CENTAUR 2         
1 00694U 63047A   26043.80133745  .00001329  00000+0  14762-3 0  9992
2 00694  30.3578 334.7242 0548123 220.9804 134.8343 14.11997341128108
THOR AGENA D R/B        
1 00733U 64002A   26043.61296369  .00000265  00000+0  11177-3 0  9994
2 00733  99.1230  55.5845 0032477 333.1529  26.7972 14.34004549234703
SL-3 R/B                
1 00877U 64053B   26043.37103446  .00000418  00000+0  10519-3 0  9994
2 00877  65.0766  45.4627 0078536 300.2488  59.0854 14.61341190263097
SL-8 R/B                
1 02802U 67045B   26043.38523623  .00000396  00000+0  11702-3 0  9992
2 02802  74.0105  35.3437 0063226  47.9100 312.7410 14.45596704 85361
SL-8 R/B                
1 03230U 68040B   26043.35216608  .00004289  00000+0  31901-3 0  9991
2 03230  74.0320   5.4547 0025074 196.7565 163.2798 15.03064424 86209
OAO 2                   
1 03597U 68110A   26043.32651715  .00000298  00000+0  85367-4 0  9996
2 03597  34.9942  46.8278 0005559 348.3908  11.6654 14.47292257 15429
ISIS 1                  
1 03669U 69009A   26043.75949278  .00000284  00000+0  18836-3 0  9996
2 03669  88.4555 158.0249 1707851 139.4620 234.7124 11.30404755345717
SERT 2                  
1 04327U 70009A   26043.80264191  .00000010  00000+0  69689-4 0  9990
2 04327  99.2725 348.2625 0004118 221.9362 166.5510 13.58727389776514
SL-3 R/B                
1 05118U 71028B   26043.76909810  .00031516  00000+0  39957-3 0  9999
2 05118  81.2341  82.7660 0017060  22.5593 337.6405 15.59109375984784
ASTEX 1                 
1 05560U 71089A   26043.78460042  .00000578  00000+0  14695-3 0  9994
2 05560  92.7150 143.7026 0016320 161.0403 199.1414 14.50740637858694
SL-8 R/B                
1 05730U 71119B   26043.81087678  .00013192  00000+0  68417-3 0  9998
2 05730  73.8848 222.1952 0553267 193.9381 164.5967 14.37074708651911
OAO 3 (COPERNICUS)      
1 06153U 72065A   26043.51830441  .00000412  00000+0  88859-4 0  9994
2 06153  35.0056  80.7220 0007039 311.4727 200.0336 14.59975368842510
