CCSDS_OMM_VERS = 2.0
CREATION_DATE  = 
ORIGINATOR     = 

OBJECT_NAME    = ATLAS CENTAUR 2
OBJECT_ID      = 1963-047A
CENTER_NAME    = EARTH
REF_FRAME      = TEME
TIME_SYSTEM    = UTC
MEAN_ELEMENT_THEORY = SGP/SGP4

EPOCH          = 2026-02-12T19:13:55.555680
MEAN_MOTION    = 14.11997341
ECCENTRICITY   = .0548123
INCLINATION    = 30.3578
RA_OF_ASC_NODE = 334.7242
ARG_OF_PERICENTER = 220.9804
MEAN_ANOMALY   = 134.8343

EPHEMERIS_TYPE = 0
CLASSIFICATION_TYPE = U
NORAD_CAT_ID   = 694
ELEMENT_SET_NO = 999
REV_AT_EPOCH   = 12810
BSTAR          = .14762E-3
MEAN_MOTION_DOT = .1329E-4
MEAN_MOTION_DDOT = 0

CCSDS_OMM_VERS = 2.0
CREATION_DATE  = 
ORIGINATOR     = 

OBJECT_NAME    = THOR AGENA D R/B
OBJECT_ID      = 1964-002A
CENTER_NAME    = EARTH
REF_FRAME      = TEME
TIME_SYSTEM    = UTC
MEAN_ELEMENT_THEORY = SGP/SGP4

EPOCH          = 2026-02-12T14:42:40.062816
MEAN_MOTION    = 14.34004549
ECCENTRICITY   = .0032477
INCLINATION    = 99.1230
RA_OF_ASC_NODE = 55.5845
ARG_OF_PERICENTER = 333.1529
MEAN_ANOMALY   = 26.7972

EPHEMERIS_TYPE = 0
CLASSIFICATION_TYPE = U
NORAD_CAT_ID   = 733
ELEMENT_SET_NO = 999
REV_AT_EPOCH   = 23470
BSTAR          = .11177E-3
MEAN_MOTION_DOT = .265E-5
MEAN_MOTION_DDOT = 0

CCSDS_OMM_VERS = 2.0
CREATION_DATE  = 
ORIGINATOR     = 

OBJECT_NAME    = SL-3 R/B
OBJECT_ID      = 1964-053B
CENTER_NAME    = EARTH
REF_FRAME      = TEME
TIME_SYSTEM    = UTC
MEAN_ELEMENT_THEORY = SGP/SGP4

EPOCH          = 2026-02-12T08:54:17.377344
MEAN_MOTION    = 14.61341190
ECCENTRICITY   = .00785365
INCLINATION    = 65.0766
RA_OF_ASC_NODE = 45.4627
ARG_OF_PERICENTER = 300.2488
MEAN_ANOMALY   = 59.0854

EPHEMERIS_TYPE = 0
CLASSIFICATION_TYPE = U
NORAD_CAT_ID   = 877
ELEMENT_SET_NO = 999
REV_AT_EPOCH   = 26309
BSTAR          = .10518528E-3
MEAN_MOTION_DOT = .418E-5
MEAN_MOTION_DDOT = 0

CCSDS_OMM_VERS = 2.0
CREATION_DATE  = 
ORIGINATOR     = 

OBJECT_NAME    = SL-8 R/B
OBJECT_ID      = 1967-045B
CENTER_NAME    = EARTH
REF_FRAME      = TEME
TIME_SYSTEM    = UTC
MEAN_ELEMENT_THEORY = SGP/SGP4

EPOCH          = 2026-02-12T09:14:44.410272
MEAN_MOTION    = 14.45596704
ECCENTRICITY   = .00632267
INCLINATION    = 74.0105
RA_OF_ASC_NODE = 35.3437
ARG_OF_PERICENTER = 47.9100
MEAN_ANOMALY   = 312.7410

EPHEMERIS_TYPE = 0
CLASSIFICATION_TYPE = U
NORAD_CAT_ID   = 2802
ELEMENT_SET_NO = 999
REV_AT_EPOCH   = 8536
BSTAR          = .11702467E-3
MEAN_MOTION_DOT = .396E-5
MEAN_MOTION_DDOT = 0

CCSDS_OMM_VERS = 2.0
CREATION_DATE  = 
ORIGINATOR     = 

OBJECT_NAME    = SL-8 R/B
OBJECT_ID      = 1968-040B
CENTER_NAME    = EARTH
REF_FRAME      = TEME
TIME_SYSTEM    = UTC
MEAN_ELEMENT_THEORY = SGP/SGP4

EPOCH          = 2026-02-12T08:27:07.149312
MEAN_MOTION    = 15.03064424
ECCENTRICITY   = .00250743
INCLINATION    = 74.0320
RA_OF_ASC_NODE = 5.4547
ARG_OF_PERICENTER = 196.7565
MEAN_ANOMALY   = 163.2798

EPHEMERIS_TYPE = 0
CLASSIFICATION_TYPE = U
NORAD_CAT_ID   = 3230
ELEMENT_SET_NO = 999
REV_AT_EPOCH   = 8620
BSTAR          = .319013E-3
MEAN_MOTION_DOT = .4289E-4
MEAN_MOTION_DDOT = 0

CCSDS_OMM_VERS = 2.0
CREATION_DATE  = 
ORIGINATOR     = 

OBJECT_NAME    = OAO 2
OBJECT_ID      = 1968-110A
CENTER_NAME    = EARTH
REF_FRAME      = TEME
TIME_SYSTEM    = UTC
MEAN_ELEMENT_THEORY = SGP/SGP4

EPOCH          = 2026-02-12T07:50:11.081760
MEAN_MOTION    = 14.47292257
ECCENTRICITY   = .00055596
INCLINATION    = 34.9942
RA_OF_ASC_NODE = 46.8278
ARG_OF_PERICENTER = 348.3908
MEAN_ANOMALY   = 11.6654

EPHEMERIS_TYPE = 0
CLASSIFICATION_TYPE = U
NORAD_CAT_ID   = 3597
ELEMENT_SET_NO = 999
REV_AT_EPOCH   = 1542
BSTAR          = .85366945E-4
MEAN_MOTION_DOT = .298E-5
MEAN_MOTION_DDOT = 0

CCSDS_OMM_VERS = 2.0
CREATION_DATE  = 
ORIGINATOR     = 

OBJECT_NAME    = ISIS 1
OBJECT_ID      = 1969-009A
CENTER_NAME    = EARTH
REF_FRAME      = TEME
TIME_SYSTEM    = UTC
MEAN_ELEMENT_THEORY = SGP/SGP4

EPOCH          = 2026-02-12T18:13:40.176192
MEAN_MOTION    = 11.30404755
ECCENTRICITY   = .1707851
INCLINATION    = 88.4555
RA_OF_ASC_NODE = 158.0249
ARG_OF_PERICENTER = 139.4620
MEAN_ANOMALY   = 234.7124

EPHEMERIS_TYPE = 0
CLASSIFICATION_TYPE = U
NORAD_CAT_ID   = 3669
ELEMENT_SET_NO = 999
REV_AT_EPOCH   = 34571
BSTAR          = .18836E-3
MEAN_MOTION_DOT = .284E-5
MEAN_MOTION_DDOT = 0

CCSDS_OMM_VERS = 2.0
CREATION_DATE  = 
ORIGINATOR     = 

OBJECT_NAME    = SERT 2
OBJECT_ID      = 1970-009A
CENTER_NAME    = EARTH
REF_FRAME      = TEME
TIME_SYSTEM    = UTC
MEAN_ELEMENT_THEORY = SGP/SGP4

EPOCH          = 2026-02-12T19:15:48.261024
MEAN_MOTION    = 13.58727389
ECCENTRICITY   = .0004118
INCLINATION    = 99.2725
RA_OF_ASC_NODE = 348.2625
ARG_OF_PERICENTER = 221.9362
MEAN_ANOMALY   = 166.5510

EPHEMERIS_TYPE = 0
CLASSIFICATION_TYPE = U
NORAD_CAT_ID   = 4327
ELEMENT_SET_NO = 999
REV_AT_EPOCH   = 77651
BSTAR          = .69689E-4
MEAN_MOTION_DOT = .1E-6
MEAN_MOTION_DDOT = 0

CCSDS_OMM_VERS = 2.0
CREATION_DATE  = 
ORIGINATOR     = 

OBJECT_NAME    = SL-3 R/B
OBJECT_ID      = 1971-028B
CENTER_NAME    = EARTH
REF_FRAME      = TEME
TIME_SYSTEM    = UTC
MEAN_ELEMENT_THEORY = SGP/SGP4

EPOCH          = 2026-02-12T18:27:30.075840
MEAN_MOTION    = 15.59109375
ECCENTRICITY   = .001706
INCLINATION    = 81.2341
RA_OF_ASC_NODE = 82.7660
ARG_OF_PERICENTER = 22.5593
MEAN_ANOMALY   = 337.6405

EPHEMERIS_TYPE = 0
CLASSIFICATION_TYPE = U
NORAD_CAT_ID   = 5118
ELEMENT_SET_NO = 999
REV_AT_EPOCH   = 98478
BSTAR          = .39957E-3
MEAN_MOTION_DOT = .31516E-3
MEAN_MOTION_DDOT = 0

CCSDS_OMM_VERS = 2.0
CREATION_DATE  = 
ORIGINATOR     = 

OBJECT_NAME    = ASTEX 1
OBJECT_ID      = 1971-089A
CENTER_NAME    = EARTH
REF_FRAME      = TEME
TIME_SYSTEM    = UTC
MEAN_ELEMENT_THEORY = SGP/SGP4

EPOCH          = 2026-02-12T18:49:49.476288
MEAN_MOTION    = 14.50740637
ECCENTRICITY   = .001632
INCLINATION    = 92.7150
RA_OF_ASC_NODE = 143.7026
ARG_OF_PERICENTER = 161.0403
MEAN_ANOMALY   = 199.1414

EPHEMERIS_TYPE = 0
CLASSIFICATION_TYPE = U
NORAD_CAT_ID   = 5560
ELEMENT_SET_NO = 999
REV_AT_EPOCH   = 85869
BSTAR          = .14695E-3
MEAN_MOTION_DOT = .578E-5
MEAN_MOTION_DDOT = 0

CCSDS_OMM_VERS = 2.0
CREATION_DATE  = 
ORIGINATOR     = 

OBJECT_NAME    = SL-8 R/B
OBJECT_ID      = 1971-119B
CENTER_NAME    = EARTH
REF_FRAME      = TEME
TIME_SYSTEM    = UTC
MEAN_ELEMENT_THEORY = SGP/SGP4

EPOCH          = 2026-02-12T19:27:39.753792
MEAN_MOTION    = 14.37074708
ECCENTRICITY   = .0553267
INCLINATION    = 73.8848
RA_OF_ASC_NODE = 222.1952
ARG_OF_PERICENTER = 193.9381
MEAN_ANOMALY   = 164.5967

EPHEMERIS_TYPE = 0
CLASSIFICATION_TYPE = U
NORAD_CAT_ID   = 5730
ELEMENT_SET_NO = 999
REV_AT_EPOCH   = 65191
BSTAR          = .68417E-3
MEAN_MOTION_DOT = .13192E-3
MEAN_MOTION_DDOT = 0

CCSDS_OMM_VERS = 2.0
CREATION_DATE  = 
ORIGINATOR     = 

OBJECT_NAME    = OAO 3 (COPERNICUS)
OBJECT_ID      = 1972-065A
CENTER_NAME    = EARTH
REF_FRAME      = TEME
TIME_SYSTEM    = UTC
MEAN_ELEMENT_THEORY = SGP/SGP4

EPOCH          = 2026-02-12T12:26:21.501024
MEAN_MOTION    = 14.59975368
ECCENTRICITY   = .00070393
INCLINATION    = 35.0056
RA_OF_ASC_NODE = 80.7220
ARG_OF_PERICENTER = 311.4727
MEAN_ANOMALY   = 200.0336

EPHEMERIS_TYPE = 0
CLASSIFICATION_TYPE = U
NORAD_CAT_ID   = 6153
ELEMENT_SET_NO = 999
REV_AT_EPOCH   = 84251
BSTAR          = .88859389E-4
MEAN_MOTION_DOT = .412E-5
MEAN_MOTION_DDOT = 0

